{"type": "FeatureCollection", "features": [ {"type": "Feature", "properties": {"norad_id": 35480, "name": "IRIDIUM 33 DEB", "group": "iridium-33-debris", "lat": -70.81207321124695, "lon": -146.02264557583462, "alt_km": 744.2023800021689, "timestamp": "2025-12-16T03:53:27.440692+00:00", "meta": {"OBJECT_NAME": "IRIDIUM 33 DEB", "OBJECT_ID": "1997-051QA", "EPOCH": "2025-12-15T08:30:57.118464", "MEAN_MOTION": 14.49774703, "ECCENTRICITY": 0.00160032, "INCLINATION": 86.3571, "RA_OF_ASC_NODE": 23.7786, "ARG_OF_PERICENTER": 97.0457, "MEAN_ANOMALY": 263.2568, "EPHEMERIS_TYPE": 0, "CLASSIFICATION_TYPE": "U", "NORAD_CAT_ID": 35480, "ELEMENT_SET_NO": 999, "REV_AT_EPOCH": 87069, "BSTAR": 0.00045738518, "MEAN_MOTION_DOT": 1.785e-05, "MEAN_MOTION_DDOT": 0}, "tle": {"line1": "1 35480U 97051QA  25349.35482776  .00001785  00000+0  45739-3 0  9998", "line2": "2 35480  86.3571  23.7786 0016003  97.0457 263.2568 14.49774703870695"}}, "geometry": {"type": "Point", "coordinates": [-146.02264557583462, -70.81207321124695]}}, {"type": "Feature", "properties": {"norad_id": 35484, "name": "IRIDIUM 33 DEB", "group": "iridium-33-debris", "lat": -60.20382826136731, "lon": -15.235556304977635, "alt_km": 593.4439030837711, "timestamp": "2025-12-16T03:53:27.440703+00:00", "meta": {"OBJECT_NAME": "IRIDIUM 33 DEB", "OBJECT_ID": "1997-051QE", "EPOCH": "2025-12-13T07:15:48.307680", "MEAN_MOTION": 14.98714194, "ECCENTRICITY": 0.00237352, "INCLINATION": 86.3615, "RA_OF_ASC_NODE": 352.4822, "ARG_OF_PERICENTER": 123.3819, "MEAN_ANOMALY": 236.9688, "EPHEMERIS_TYPE": 0, "CLASSIFICATION_TYPE": "U", "NORAD_CAT_ID": 35484, "ELEMENT_SET_NO": 999, "REV_AT_EPOCH": 62024, "BSTAR": 0.0048114888, "MEAN_MOTION_DOT": 0.00058609, "MEAN_MOTION_DDOT": 0}, "tle": {"line1": "1 35484U 97051QE  25347.30264245  .00058609  00000+0  48115-2 0  9991", "line2": "2 35484  86.3615 352.4822 0023735 123.3819 236.9688 14.98714194620242"}}, "geometry": {"type": "Point", "coordinates": [-15.235556304977635, -60.20382826136731]}}, {"type": "Feature", "properties": {"norad_id": 35488, "name": "IRIDIUM 33 DEB", "group": "iridium-33-debris", "lat": -35.4919889173863, "lon": 121.92792742184969, "alt_km": 646.4882323145212, "timestamp": "2025-12-16T03:53:27.440714+00:00", "meta": {"OBJECT_NAME": "IRIDIUM 33 DEB", "OBJECT_ID": "1997-051QJ", "EPOCH": "2025-12-15T07:29:31.144128", "MEAN_MOTION": 14.8313163, "ECCENTRICITY": 0.00296024, "INCLINATION": 86.3246, "RA_OF_ASC_NODE": 299.6926, "ARG_OF_PERICENTER": 34.6907, "MEAN_ANOMALY": 325.6239, "EPHEMERIS_TYPE": 0, "CLASSIFICATION_TYPE": "U", "NORAD_CAT_ID": 35488, "ELEMENT_SET_NO": 999, "REV_AT_EPOCH": 88304, "BSTAR": 0.0010152976, "MEAN_MOTION_DOT": 8.367e-05, "MEAN_MOTION_DDOT": 0}, "tle": {"line1": "1 35488U 97051QJ  25349.31216602  .00008367  00000+0  10153-2 0  9999", "line2": "2 35488  86.3246 299.6926 0029602  34.6907 325.6239 14.83131630883043"}}, "geometry": {"type": "Point", "coordinates": [121.92792742184969, -35.4919889173863]}}, {"type": "Feature", "properties": {"norad_id": 35616, "name": "IRIDIUM 33 DEB", "group": "iridium-33-debris", "lat": -0.7199602621334193, "lon": -15.842698608017015, "alt_km": 632.8512341589267, "timestamp": "2025-12-16T03:53:27.440724+00:00", "meta": {"OBJECT_NAME": "IRIDIUM 33 DEB", "OBJECT_ID": "1997-051QN", "EPOCH": "2025-12-13T17:33:06.169824", "MEAN_MOTION": 14.81853952, "ECCENTRICITY": 0.00103784, "INCLINATION": 86.3548, "RA_OF_ASC_NODE": 345.3124, "ARG_OF_PERICENTER": 159.4251, "MEAN_ANOMALY": 200.7391, "EPHEMERIS_TYPE": 0, "CLASSIFICATION_TYPE": "U", "NORAD_CAT_ID": 35616, "ELEMENT_SET_NO": 999, "REV_AT_EPOCH": 87589, "BSTAR": 0.0018690544, "MEAN_MOTION_DOT": 0.00014827, "MEAN_MOTION_DDOT": 0}, "tle": {"line1": "1 35616U 97051QN  25347.73132141  .00014827  00000+0  18691-2 0  9994", "line2": "2 35616  86.3548 345.3124 0010378 159.4251 200.7391 14.81853952875890"}}, "geometry": {"type": "Point", "coordinates": [-15.842698608017015, -0.7199602621334193]}}, {"type": "Feature", "properties": {"norad_id": 35618, "name": "IRIDIUM 33 DEB", "group": "iridium-33-debris", "lat": 57.4393063182256, "lon": 166.25512184266842, "alt_km": 720.6934892466834, "timestamp": "2025-12-16T03:53:27.440734+00:00", "meta": {"OBJECT_NAME": "IRIDIUM 33 DEB", "OBJECT_ID": "1997-051QQ", "EPOCH": "2025-12-05T07:42:53.148672", "MEAN_MOTION": 14.52258119, "ECCENTRICITY": 0.00302089, "INCLINATION": 86.3407, "RA_OF_ASC_NODE": 356.7447, "ARG_OF_PERICENTER": 46.3254, "MEAN_ANOMALY": 314.0448, "EPHEMERIS_TYPE": 0, "CLASSIFICATION_TYPE": "U", "NORAD_CAT_ID": 35618, "ELEMENT_SET_NO": 999, "REV_AT_EPOCH": 65286, "BSTAR": 0.00091388234, "MEAN_MOTION_DOT": 3.753e-05, "MEAN_MOTION_DDOT": 0}, "tle": {"line1": "1 35618U 97051QQ  25339.32144848  .00003753  00000+0  91388-3 0  9990", "line2": "2 35618  86.3407 356.7447 0030208  46.3254 314.0448 14.52258119652865"}}, "geometry": {"type": "Point", "coordinates": [166.25512184266842, 57.4393063182256]}}, {"type": "Feature", "properties": {"norad_id": 35620, "name": "IRIDIUM 33 DEB", "group": "iridium-33-debris", "lat": -68.86702436750855, "lon": -153.39949558180683, "alt_km": 697.9713139368178, "timestamp": "2025-12-16T03:53:27.440746+00:00", "meta": {"OBJECT_NAME": "IRIDIUM 33 DEB", "OBJECT_ID": "1997-051QS", "EPOCH": "2025-12-14T08:47:37.258080", "MEAN_MOTION": 14.3812904, "ECCENTRICITY": 0.01406283, "INCLINATION": 86.3871, "RA_OF_ASC_NODE": 216.7659, "ARG_OF_PERICENTER": 253.5929, "MEAN_ANOMALY": 104.9772, "EPHEMERIS_TYPE": 0, "CLASSIFICATION_TYPE": "U", "NORAD_CAT_ID": 35620, "ELEMENT_SET_NO": 999, "REV_AT_EPOCH": 59989, "BSTAR": 0.0051034736, "MEAN_MOTION_DOT": 0.000174, "MEAN_MOTION_DDOT": 0}, "tle": {"line1": "1 35620U 97051QS  25348.36640345  .00017400  00000+0  51035-2 0  9998", "line2": "2 35620  86.3871 216.7659 0140628 253.5929 104.9772 14.38129040599895"}}, "geometry": {"type": "Point", "coordinates": [-153.39949558180683, -68.86702436750855]}}, {"type": "Feature", "properties": {"norad_id": 35622, "name": "IRIDIUM 33 DEB", "group": "iridium-33-debris", "lat": 62.24212965935623, "lon": 74.6674233046886, "alt_km": 548.5443918719984, "timestamp": "2025-12-16T03:53:27.440768+00:00", "meta": {"OBJECT_NAME": "IRIDIUM 33 DEB", "OBJECT_ID": "1997-051QU", "EPOCH": "2025-12-14T12:14:43.972224", "MEAN_MOTION": 15.04969242, "ECCENTRICITY": 0.00054886, "INCLINATION": 86.2028, "RA_OF_ASC_NODE": 262.7313, "ARG_OF_PERICENTER": 323.1514, "MEAN_ANOMALY": 209.8665, "EPHEMERIS_TYPE": 0, "CLASSIFICATION_TYPE": "U", "NORAD_CAT_ID": 35622, "ELEMENT_SET_NO": 999, "REV_AT_EPOCH": 87386, "BSTAR": 0.0048535985, "MEAN_MOTION_DOT": 0.00069411, "MEAN_MOTION_DDOT": 0}, "tle": {"line1": "1 35622U 97051QU  25348.51023116  .00069411  00000+0  48536-2 0  9999", "line2": "2 35622  86.2028 262.7313 0005488 323.1514 209.8665 15.04969242873864"}}, "geometry": {"type": "Point", "coordinates": [74.6674233046886, 62.24212965935623]}}, {"type": "Feature", "properties": {"norad_id": 35628, "name": "IRIDIUM 33 DEB", "group": "iridium-33-debris", "lat": -27.10246813556632, "lon": -170.5821841968808, "alt_km": 678.4785340921371, "timestamp": "2025-12-16T03:53:27.440788+00:00", "meta": {"OBJECT_NAME": "IRIDIUM 33 DEB", "OBJECT_ID": "1997-051RA", "EPOCH": "2025-12-13T19:18:48.561408", "MEAN_MOTION": 14.67604958, "ECCENTRICITY": 0.00102895, "INCLINATION": 86.3579, "RA_OF_ASC_NODE": 8.6006, "ARG_OF_PERICENTER": 338.9594, "MEAN_ANOMALY": 21.1195, "EPHEMERIS_TYPE": 0, "CLASSIFICATION_TYPE": "U", "NORAD_CAT_ID": 35628, "ELEMENT_SET_NO": 999, "REV_AT_EPOCH": 86462, "BSTAR": 0.0015459634, "MEAN_MOTION_DOT": 8.811e-05, "MEAN_MOTION_DDOT": 0}, "tle": {"line1": "1 35628U 97051RA  25347.80472872  .00008811  00000+0  15460-2 0  9990", "line2": "2 35628  86.3579   8.6006 0010289 338.9594  21.1195 14.67604958864620"}}, "geometry": {"type": "Point", "coordinates": [-170.5821841968808, -27.10246813556632]}}, {"type": "Feature", "properties": {"norad_id": 35631, "name": "IRIDIUM 33 DEB", "group": "iridium-33-debris", "lat": -33.7525911099933, "lon": -158.0646900520486, "alt_km": 744.4756109466698, "timestamp": "2025-12-16T03:53:27.440804+00:00", "meta": {"OBJECT_NAME": "IRIDIUM 33 DEB", "OBJECT_ID": "1997-051RD", "EPOCH": "2025-12-15T08:42:47.316960", "MEAN_MOTION": 14.47318877, "ECCENTRICITY": 0.00191154, "INCLINATION": 86.3676, "RA_OF_ASC_NODE": 19.8463, "ARG_OF_PERICENTER": 110.0976, "MEAN_ANOMALY": 262.6147, "EPHEMERIS_TYPE": 0, "CLASSIFICATION_TYPE": "U", "NORAD_CAT_ID": 35631, "ELEMENT_SET_NO": 999, "REV_AT_EPOCH": 87235, "BSTAR": 0.00030975227, "MEAN_MOTION_DOT": 1.156e-05, "MEAN_MOTION_DDOT": 0}, "tle": {"line1": "1 35631U 97051RD  25349.36304765  .00001156  00000+0  30975-3 0  9996", "line2": "2 35631  86.3676  19.8463 0019115 110.0976 262.6147 14.47318877872351"}}, "geometry": {"type": "Point", "coordinates": [-158.0646900520486, -33.7525911099933]}}, {"type": "Feature", "properties": {"norad_id": 35680, "name": "IRIDIUM 33 DEB", "group": "iridium-33-debris", "lat": -38.816389361259276, "lon": -156.84882058669126, "alt_km": 756.2090203561729, "timestamp": "2025-12-16T03:53:27.440821+00:00", "meta": {"OBJECT_NAME": "IRIDIUM 33 DEB", "OBJECT_ID": "1997-051RJ", "EPOCH": "2025-12-14T08:38:54.081024", "MEAN_MOTION": 14.20954301, "ECCENTRICITY": 0.01504449, "INCLINATION": 86.1029, "RA_OF_ASC_NODE": 20.8049, "ARG_OF_PERICENTER": 273.3107, "MEAN_ANOMALY": 95.5624, "EPHEMERIS_TYPE": 0, "CLASSIFICATION_TYPE": "U", "NORAD_CAT_ID": 35680, "ELEMENT_SET_NO": 999, "REV_AT_EPOCH": 60724, "BSTAR": 0.0038932879, "MEAN_MOTION_DOT": 9.473e-05, "MEAN_MOTION_DDOT": 0}, "tle": {"line1": "1 35680U 97051RJ  25348.36034816  .00009473  00000+0  38933-2 0  9997", "line2": "2 35680  86.1029  20.8049 0150444 273.3107  95.5624 14.20954301607243"}}, "geometry": {"type": "Point", "coordinates": [-156.84882058669126, -38.816389361259276]}}]}